0 OPS 4682 DEB
1 38433U 65027EN  13285.35918431  .00000041  00000-0  10000-3 0   488
2 38433 090.2733 249.9347 0017469 025.9580 334.3926 13.06512161535190
0 OPS 4682 DEB
1 38433U 65027EN  13286.89081463  .00000041  00000-0  10000-3 0   495
2 38433 090.2900 249.9679 0031752 034.6614 325.3658 13.06513051535393
0 OPS 4682 DEB
1 38433U 65027EN  13288.34595314  .00000041  00000-0  10000-3 0   504
2 38433 090.2870 250.0161 0034940 033.8052 326.5506 13.06517475535587
0 OPS 4682 DEB
1 38433U 65027EN  13290.33709841  .00000041  00000-0  10000-3 0   519
2 38433 090.2770 250.0658 0037812 027.0536 333.2883 13.06520480535842
0 OPS 4682 DEB
1 38433U 65027EN  13293.32380753  .00000041  00000-0  10000-3 0   529
2 38433 090.2736 250.1457 0038552 019.8238 340.5613 13.06525608536235
0 OPS 4682 DEB
1 38433U 65027EN  13294.85542426  .00000041  00000-0  10000-3 0   536
2 38433 090.2686 250.1789 0041328 007.4114 352.9077 13.06528494536437
0 OPS 4682 DEB
1 38433U 65027EN  13295.31488484  .00000041  00000-0  10000-3 0   542
2 38433 090.2975 250.1992 0034183 013.1929 347.0748 13.06531546536491
0 OPS 4682 DEB
1 38433U 65027EN  13295.85094354  .00000041  00000-0  10000-3 0   551
2 38433 090.2982 250.2201 0029645 013.0902 347.1941 13.06535901536563
